[{"OBJECT_NAME":"ASTROCAST-0404","OBJECT_ID":"2023-001DH","EPOCH":"2026-03-09T19:24:02.920896","MEAN_MOTION":15.26309833,"ECCENTRICITY":0.00068478,"INCLINATION":97.5646,"RA_OF_ASC_NODE":161.5422,"ARG_OF_PERICENTER":1.1317,"MEAN_ANOMALY":358.9936,"EPHEMERIS_TYPE":0,"CLASSIFICATION_TYPE":"U","NORAD_CAT_ID":55112,"ELEMENT_SET_NO":999,"REV_AT_EPOCH":12936,"BSTAR":0.00034435555,"MEAN_MOTION_DOT":8.87e-5,"MEAN_MOTION_DDOT":0},{"OBJECT_NAME":"STARLINK-34028","OBJECT_ID":"2025-099X","EPOCH":"2026-03-09T08:42:01.248480","MEAN_MOTION":15.2758915,"ECCENTRICITY":0.0001832,"INCLINATION":43.0007,"RA_OF_ASC_NODE":174.8226,"ARG_OF_PERICENTER":273.304,"MEAN_ANOMALY":86.7602,"EPHEMERIS_TYPE":0,"CLASSIFICATION_TYPE":"U","NORAD_CAT_ID":63973,"ELEMENT_SET_NO":999,"REV_AT_EPOCH":4732,"BSTAR":0.00095511233,"MEAN_MOTION_DOT":0.00026121,"MEAN_MOTION_DDOT":0}]
